NORAD_CAT_ID,OBJECT_NAME,OBJECT_TYPE,EPOCH,MEAN_MOTION,ECCENTRICITY,INCLINATION,RA_OF_ASC_NODE,ARG_OF_PERICENTER,MEAN_ANOMALY,BSTAR,MEAN_MOTION_DOT,MEAN_MOTION_DDOT,TLE_LINE0,TLE_LINE1,TLE_LINE2,SEMIMAJOR_AXIS,PERIOD,APOGEE,PERIGEE,DECAYED
52694.0,STARLINK-4072,PAYLOAD,2024-02-14 09:01:24,15.08841515,0.0001602,53.2168,290.3683,61.6086,298.5068,-4.8677e-06,-3.66e-06,0.0,0 STARLINK-4072,1 52694U 22053AQ  24045.37597429 -.00000366  00000-0 -48677-5 0  9993,2 52694  53.2168 290.3683 0001602  61.6086 298.5068 15.08841515 97271,6917.876,95.437,540.849,538.633,0.0
52694.0,STARLINK-4072,PAYLOAD,2024-02-14 15:22:56,15.08831512,0.0001185,53.2178,289.1804,97.5929,262.5198,0.0001117,1.49e-05,0.0,0 STARLINK-4072,1 52694U 22053AQ  24045.64093716  .00001490  00000-0  11170-3 0  9996,2 52694  53.2178 289.1804 0001185  97.5929 262.5198 15.08831512 96914,6917.906,95.438,540.591,538.952,0.0
52694.0,STARLINK-4072,PAYLOAD,2024-02-14 21:44:29,15.08839116,0.0001107,53.2174,287.9912,96.75,263.3618,6.3227e-05,7.19e-06,0.0,0 STARLINK-4072,1 52694U 22053AQ  24045.90589489  .00000719  00000-0  63227-4 0  9996,2 52694  53.2174 287.9912 0001107  96.7500 263.3618 15.08839116 97359,6917.883,95.438,540.514,538.982,0.0
52694.0,STARLINK-4072,PAYLOAD,2024-02-14 23:19:52,15.08840424,0.0001104,53.2172,287.6939,101.54,258.5716,7.1305e-05,8.47e-06,0.0,0 STARLINK-4072,1 52694U 22053AQ  24045.97213353  .00000847  00000-0  71305-4 0  9995,2 52694  53.2172 287.6939 0001104 101.5400 258.5716 15.08840424 96969,6917.879,95.438,540.508,538.98,0.0
52694.0,STARLINK-4072,PAYLOAD,2024-02-15 19:59:54,15.08817793,0.0001167,53.2168,283.8281,100.5727,259.5397,0.00016694,2.368e-05,0.0,0 STARLINK-4072,1 52694U 22053AQ  24046.83326897  .00002368  00000-0  16694-3 0  9998,2 52694  53.2168 283.8281 0001167 100.5727 259.5397 15.08817793 97096,6917.948,95.439,540.621,539.006,0.0
52694.0,STARLINK-4072,PAYLOAD,2024-02-15 21:35:17,15.08834551,0.0001085,53.2172,283.5312,96.5127,263.5989,-1.4859e-05,-5.24e-06,0.0,0 STARLINK-4072,1 52694U 22053AQ  24046.89950325 -.00000524  00000-0 -14859-4 0  9999,2 52694  53.2172 283.5312 0001085  96.5127 263.5989 15.08834551 97509,6917.897,95.438,540.513,539.011,0.0
52694.0,STARLINK-4072,PAYLOAD,2024-02-16 00:46:02,15.088401,0.0001105,53.2164,282.9351,101.8036,258.308,2.2368e-05,6.8e-07,0.0,0 STARLINK-4072,1 52694U 22053AQ  24047.03197845  .00000068  00000-0  22368-4 0  9991,2 52694  53.2164 282.9351 0001105 101.8036 258.3080 15.08840100 97127,6917.88,95.438,540.51,538.981,0.0
52694.0,STARLINK-4072,PAYLOAD,2024-02-16 08:42:58,15.0884016,0.0001144,53.2167,281.4486,89.6219,270.4904,5.1219e-05,5.27e-06,0.0,0 STARLINK-4072,1 52694U 22053AQ  24047.36317829  .00000527  00000-0  51219-4 0  9990,2 52694  53.2167 281.4486 0001144  89.6219 270.4904 15.08840160 97577,6917.88,95.438,540.536,538.953,0.0
52694.0,STARLINK-4072,PAYLOAD,2024-02-16 21:26:03,15.08845474,0.0001077,53.2162,279.0676,88.2003,271.9113,2.1208e-05,5e-07,0.0,0 STARLINK-4072,1 52694U 22053AQ  24047.89309554  .00000050  00000-0  21208-4 0  9990,2 52694  53.2162 279.0676 0001077  88.2003 271.9113 15.08845474 97657,6917.864,95.437,540.474,538.984,0.0
52694.0,STARLINK-4072,PAYLOAD,2024-02-17 00:36:49,15.0885064,0.0001202,53.2164,278.4733,101.4924,258.6203,8.6438e-05,1.088e-05,0.0,0 STARLINK-4072,1 52694U 22053AQ  24048.02556964  .00001088  00000-0  86438-4 0  9993,2 52694  53.2164 278.4733 0001202 101.4924 258.6203 15.08850640 97277,6917.848,95.437,540.544,538.881,0.0
52694.0,STARLINK-4072,PAYLOAD,2024-02-17 08:33:45,15.0884259,0.0001182,53.2166,276.9859,85.2069,274.9058,-4.7689e-05,-1.047e-05,0.0,0 STARLINK-4072,1 52694U 22053AQ  24048.35677736 -.00001047  00000-0 -47689-4 0  9992,2 52694  53.2166 276.9859 0001182  85.2069 274.9058 15.08842590 97327,6917.872,95.437,540.555,538.92,0.0
52694.0,STARLINK-4072,PAYLOAD,2024-02-17 21:16:50,15.08840111,0.0001108,53.2167,274.6051,96.7201,263.3918,2.2826e-05,7.5e-07,0.0,0 STARLINK-4072,1 52694U 22053AQ  24048.88669932  .00000075  00000-0  22826-4 0  9993,2 52694  53.2167 274.6051 0001108  96.7201 263.3918 15.08840111 97807,6917.88,95.438,540.512,538.979,0.0
52694.0,STARLINK-4072,PAYLOAD,2024-02-18 08:24:32,15.08842685,0.0001218,53.2163,272.5247,86.0893,274.0238,4.497e-05,4.28e-06,0.0,0 STARLINK-4072,1 52694U 22053AQ  24049.35037749  .00000428  00000-0  44970-4 0  9997,2 52694  53.2163 272.5247 0001218  86.0893 274.0238 15.08842685 97877,6917.872,95.437,540.58,538.895,0.0
52694.0,STARLINK-4072,PAYLOAD,2024-02-18 19:32:14,15.08845818,0.0001273,53.2167,270.4425,86.8816,273.2322,5.307e-05,5.57e-06,0.0,0 STARLINK-4072,1 52694U 22053AQ  24049.81405423  .00000557  00000-0  53070-4 0  9990,2 52694  53.2167 270.4425 0001273  86.8816 273.2322 15.08845818 97540,6917.863,95.437,540.608,538.847,0.0
52694.0,STARLINK-4072,PAYLOAD,2024-02-18 21:07:37,15.08851787,0.0001173,53.2171,270.1442,100.3374,259.775,1.2235e-05,-9.3e-07,0.0,0 STARLINK-4072,1 52694U 22053AQ  24049.88029114 -.00000093  00000-0  12235-4 0  9990,2 52694  53.2171 270.1442 0001173 100.3374 259.7750 15.08851787 97952,6917.844,95.437,540.521,538.898,0.0
52694.0,STARLINK-4072,PAYLOAD,2024-02-19 00:18:23,15.08852516,0.000109,53.2169,269.5493,83.8543,276.2573,5.1107e-05,5.26e-06,0.0,0 STARLINK-4072,1 52694U 22053AQ  24050.01276898  .00000526  00000-0  51107-4 0  9991,2 52694  53.2169 269.5493 0001090  83.8543 276.2573 15.08852516 97978,6917.842,95.437,540.461,538.953,0.0
52694.0,STARLINK-4072,PAYLOAD,2024-02-19 20:58:25,15.08835162,0.0001194,53.2161,265.6847,88.8519,271.261,3.1321e-05,2.11e-06,0.0,0 STARLINK-4072,1 52694U 22053AQ  24050.87390186  .00000211  00000-0  31321-4 0  9999,2 52694  53.2161 265.6847 0001194  88.8519 271.2610 15.08835162 97709,6917.895,95.438,540.586,538.934,0.0
52694.0,STARLINK-4072,PAYLOAD,2024-02-20 00:09:11,15.08836353,0.0001244,53.217,265.0894,91.7072,268.4062,7.6926e-06,-1.65e-06,0.0,0 STARLINK-4072,1 52694U 22053AQ  24051.00638155 -.00000165  00000-0  76926-5 0  9996,2 52694  53.2170 265.0894 0001244  91.7072 268.4062 15.08836353 98127,6917.892,95.438,540.617,538.896,0.0
52694.0,STARLINK-4072,PAYLOAD,2024-02-20 20:49:11,15.08843785,0.0001181,53.2163,261.2247,88.4441,271.6686,1.1239e-05,-1.09e-06,0.0,0 STARLINK-4072,1 52694U 22053AQ  24051.86749819 -.00000109  00000-0  11239-4 0  9993,2 52694  53.2163 261.2247 0001181  88.4441 271.6686 15.08843785 98251,6917.869,95.437,540.551,538.917,0.0
52694.0,STARLINK-4072,PAYLOAD,2024-02-21 12:43:03,15.08834762,0.000126,53.217,258.2541,97.4055,262.708,9.5824e-05,1.237e-05,0.0,0 STARLINK-4072,1 52694U 22053AQ  24052.52990207  .00001237  00000-0  95824-4 0  9990,2 52694  53.2170 258.2541 0001260  97.4055 262.7080 15.08834762 97951,6917.896,95.438,540.633,538.89,0.0
52694.0,STARLINK-4072,PAYLOAD,2024-02-21 20:39:59,15.08834005,0.0001307,53.2173,256.7658,93.7843,266.3299,5.0985e-05,5.24e-06,0.0,0 STARLINK-4072,1 52694U 22053AQ  24052.86110514  .00000524  00000-0  50985-4 0  9999,2 52694  53.2173 256.7658 0001307  93.7843 266.3299 15.08834005 98405,6917.899,95.438,540.668,538.86,0.0
52694.0,STARLINK-4072,PAYLOAD,2024-02-22 06:12:18,15.08837049,0.0001328,53.2174,254.9817,93.7346,266.3798,5.7056e-05,6.2e-06,0.0,0 STARLINK-4072,1 52694U 22053AQ  24053.25854407  .00000620  00000-0  57056-4 0  9992,2 52694  53.2174 254.9817 0001328  93.7346 266.3798 15.08837049 98465,6917.889,95.438,540.673,538.836,0.0
52694.0,STARLINK-4072,PAYLOAD,2024-02-22 20:30:46,15.08840715,0.0001333,53.2172,252.3059,97.3123,262.8021,4.5886e-05,4.42e-06,0.0,0 STARLINK-4072,1 52694U 22053AQ  24053.85470296  .00000442  00000-0  45886-4 0  9998,2 52694  53.2172 252.3059 0001333  97.3123 262.8021 15.08840715 98152,6917.878,95.438,540.665,538.821,0.0
52694.0,STARLINK-4072,PAYLOAD,2024-02-22 23:41:32,15.08840146,0.0001356,53.217,251.7103,102.0998,258.0146,0.00014015,1.943e-05,0.0,0 STARLINK-4072,1 52694U 22053AQ  24053.98718007  .00001943  00000-0  14015-3 0  9993,2 52694  53.2170 251.7103 0001356 102.0998 258.0146 15.08840146 98571,6917.88,95.438,540.683,538.807,0.0
52694.0,STARLINK-4072,PAYLOAD,2024-02-23 20:21:33,15.0884187,0.0001219,53.2157,247.8427,88.2791,271.8341,6.5777e-05,7.59e-06,0.0,0 STARLINK-4072,1 52694U 22053AQ  24054.84830197  .00000759  00000-0  65777-4 0  9990,2 52694  53.2157 247.8427 0001219  88.2791 271.8341 15.08841870 98705,6917.875,95.437,540.583,538.896,0.0
52694.0,STARLINK-4072,PAYLOAD,2024-02-24 05:53:52,15.08841934,0.0001294,53.2155,246.0586,87.4275,272.6865,5.4036e-05,5.72e-06,0.0,0 STARLINK-4072,1 52694U 22053AQ  24055.24574233  .00000572  00000-0  54036-4 0  9990,2 52694  53.2155 246.0586 0001294  87.4275 272.6865 15.08841934 98364,6917.874,95.437,540.635,538.844,0.0
52694.0,STARLINK-4072,PAYLOAD,2024-02-24 21:47:43,15.08844348,0.0001377,53.216,243.0858,85.1881,274.9268,4.4996e-05,4.28e-06,0.0,0 STARLINK-4072,1 52694U 22053AQ  24055.90814139  .00000428  00000-0  44996-4 0  9999,2 52694  53.2160 243.0858 0001377  85.1881 274.9268 15.08844348 98868,6917.867,95.437,540.685,538.78,0.0
52694.0,STARLINK-4072,PAYLOAD,2024-02-25 05:44:39,15.08842945,0.000141,53.2163,241.5992,85.1403,274.975,3.2228e-05,2.25e-06,0.0,0 STARLINK-4072,1 52694U 22053AQ  24056.23934204  .00000225  00000-0  32228-4 0  9992,2 52694  53.2163 241.5992 0001410  85.1403 274.9750 15.08842945 98914,6917.871,95.437,540.712,538.761,0.0
52694.0,STARLINK-4072,PAYLOAD,2024-02-25 18:27:43,15.08849949,0.0001253,53.2148,239.2182,98.2311,261.8823,5.9664e-05,6.62e-06,0.0,0 STARLINK-4072,1 52694U 22053AQ  24056.76925469  .00000662  00000-0  59664-4 0  9991,2 52694  53.2148 239.2182 0001253  98.2311 261.8823 15.08849949 98591,6917.85,95.437,540.582,538.848,0.0
52694.0,STARLINK-4072,PAYLOAD,2024-02-25 21:38:29,15.08848922,0.0001355,53.215,238.6234,89.6245,270.4902,8.787e-05,1.111e-05,0.0,0 STARLINK-4072,1 52694U 22053AQ  24056.90173464  .00001111  00000-0  87870-4 0  9997,2 52694  53.2150 238.6234 0001355  89.6245 270.4902 15.08848922 99010,6917.853,95.437,540.655,538.781,0.0
